start=new Date('2023-04-12T00:00:00.000Z').valueOf();
sats=[{"TLE_LINE1":"1 45054U 20006L   23101.92148741  .00020100  00000-0  13632-2 0  9999","MEAN_MOTION":"15.06433313","FILE":"3885919","CLASSIFICATION_TYPE":"U","SITE":"AFETR","ECCENTRICITY":"0.00011660","LAUNCH_DATE":"2020-01-29","DECAY_DATE":null,"PERIOD":"95.590","REF_FRAME":"TEME","OBJECT_NAME":"STARLINK-1156","PERIAPSIS":"546.304","TLE_LINE2":"2 45054  53.0565  17.5674 0001166  61.4631 298.6475 15.06433313176272","COUNTRY_CODE":"US","RCS_SIZE":"LARGE","ELEMENT_SET_NO":"999","INCLINATION":"53.0565","EPOCH":"2023-04-11T22:06:56.512224","RA_OF_ASC_NODE":"17.5674","MEAN_ANOMALY":"298.6475","TIME_SYSTEM":"UTC","BSTAR":"0.00136320000000","CENTER_NAME":"EARTH","GP_ID":"229943155","ARG_OF_PERICENTER":"61.4631","OBJECT_ID":"2020-006L","REV_AT_EPOCH":"17627","MEAN_ELEMENT_THEORY":"SGP4","EPHEMERIS_TYPE":"0","NORAD_CAT_ID":"45054","OBJECT_TYPE":"PAYLOAD","APOAPSIS":"547.919","MEAN_MOTION_DDOT":"0.0000000000000","SEMIMAJOR_AXIS":"6925.246","MEAN_MOTION_DOT":"0.00020100"},{"REV_AT_EPOCH":"17628","NORAD_CAT_ID":"45057","EPHEMERIS_TYPE":"0","MEAN_ELEMENT_THEORY":"SGP4","CENTER_NAME":"EARTH","BSTAR":"0.00161780000000","ARG_OF_PERICENTER":"124.6914","OBJECT_ID":"2020-006P","GP_ID":"229941921","SEMIMAJOR_AXIS":"6925.212","MEAN_MOTION_DOT":"0.00023927","APOAPSIS":"547.927","OBJECT_TYPE":"PAYLOAD","MEAN_MOTION_DDOT":"0.0000000000000","LAUNCH_DATE":"2020-01-29","DECAY_DATE":null,"ECCENTRICITY":"0.00012270","PERIOD":"95.589","CLASSIFICATION_TYPE":"U","FILE":"3885919","MEAN_MOTION":"15.06444459","TLE_LINE1":"1 45057U 20006P   23101.93622756  .00023927  00000-0  16178-2 0  9994","SITE":"AFETR","INCLINATION":"53.0554","ELEMENT_SET_NO":"999","RCS_SIZE":"LARGE","MEAN_ANOMALY":"235.4191","RA_OF_ASC_NODE":"17.5042","TIME_SYSTEM":"UTC","EPOCH":"2023-04-11T22:28:10.061184","OBJECT_NAME":"STARLINK-1159","REF_FRAME":"TEME","TLE_LINE2":"2 45057  53.0554  17.5042 0001227 124.6914 235.4191 15.06444459176284","COUNTRY_CODE":"US","PERIAPSIS":"546.228"},{"MEAN_MOTION_DDOT":"0.0000000000000","APOAPSIS":"547.876","OBJECT_TYPE":"PAYLOAD","MEAN_MOTION_DOT":"0.00022439","SEMIMAJOR_AXIS":"6925.183","ARG_OF_PERICENTER":"118.3896","OBJECT_ID":"2020-006Q","GP_ID":"229942171","CENTER_NAME":"EARTH","BSTAR":"0.00151830000000","NORAD_CAT_ID":"45058","MEAN_ELEMENT_THEORY":"SGP4","EPHEMERIS_TYPE":"0","REV_AT_EPOCH":"17628","TLE_LINE2":"2 45058  53.0550  17.5349 0001196 118.3896 241.7213 15.06454030176286","COUNTRY_CODE":"US","PERIAPSIS":"546.220","OBJECT_NAME":"STARLINK-1162","REF_FRAME":"TEME","MEAN_ANOMALY":"241.7213","TIME_SYSTEM":"UTC","RA_OF_ASC_NODE":"17.5349","EPOCH":"2023-04-11T22:17:32.585568","INCLINATION":"53.0550","ELEMENT_SET_NO":"999","RCS_SIZE":"LARGE","SITE":"AFETR","CLASSIFICATION_TYPE":"U","MEAN_MOTION":"15.06454030","FILE":"3885919","TLE_LINE1":"1 45058U 20006Q   23101.92884937  .00022439  00000-0  15183-2 0  9997","PERIOD":"95.589","DECAY_DATE":null,"LAUNCH_DATE":"2020-01-29","ECCENTRICITY":"0.00011960"},{"SITE":"AFETR","CLASSIFICATION_TYPE":"U","TLE_LINE1":"1 45059U 20006R   23101.75192798  .00027084  00000-0  18301-2 0  9992","MEAN_MOTION":"15.06401672","FILE":"3885919","PERIOD":"95.592","ECCENTRICITY":"0.00008300","LAUNCH_DATE":"2020-01-29","DECAY_DATE":null,"TLE_LINE2":"2 45059  53.0549  18.3295 0000830  95.3440 264.7643 15.06401672176250","COUNTRY_CODE":"US","PERIAPSIS":"546.634","REF_FRAME":"TEME","OBJECT_NAME":"STARLINK-1165","EPOCH":"2023-04-11T18:02:46.577472","TIME_SYSTEM":"UTC","RA_OF_ASC_NODE":"18.3295","MEAN_ANOMALY":"264.7643","ELEMENT_SET_NO":"999","INCLINATION":"53.0549","RCS_SIZE":"LARGE","ARG_OF_PERICENTER":"95.3440","OBJECT_ID":"2020-006R","GP_ID":"229942423","CENTER_NAME":"EARTH","BSTAR":"0.00183010000000","NORAD_CAT_ID":"45059","MEAN_ELEMENT_THEORY":"SGP4","EPHEMERIS_TYPE":"0","REV_AT_EPOCH":"17625","MEAN_MOTION_DDOT":"0.0000000000000","OBJECT_TYPE":"PAYLOAD","APOAPSIS":"547.783","MEAN_MOTION_DOT":"0.00027084","SEMIMAJOR_AXIS":"6925.343"},{"CLASSIFICATION_TYPE":"U","TLE_LINE1":"1 45060U 20006S   23101.21748538  .00010938  00000-0  75214-3 0  9991","MEAN_MOTION":"15.06395353","FILE":"3885783","SITE":"AFETR","ECCENTRICITY":"0.00008660","DECAY_DATE":null,"LAUNCH_DATE":"2020-01-29","PERIOD":"95.592","REF_FRAME":"TEME","OBJECT_NAME":"STARLINK-1166","TLE_LINE2":"2 45060  53.0549  20.7284 0000866  98.4741 261.6346 15.06395353176179","COUNTRY_CODE":"US","PERIAPSIS":"546.628","ELEMENT_SET_NO":"999","INCLINATION":"53.0549","RCS_SIZE":"LARGE","EPOCH":"2023-04-11T05:13:10.736832","TIME_SYSTEM":"UTC","MEAN_ANOMALY":"261.6346","RA_OF_ASC_NODE":"20.7284","CENTER_NAME":"EARTH","BSTAR":"0.00075214000000","OBJECT_ID":"2020-006S","ARG_OF_PERICENTER":"98.4741","GP_ID":"229913064","REV_AT_EPOCH":"17617","NORAD_CAT_ID":"45060","MEAN_ELEMENT_THEORY":"SGP4","EPHEMERIS_TYPE":"0","OBJECT_TYPE":"PAYLOAD","APOAPSIS":"547.828","MEAN_MOTION_DDOT":"0.0000000000000","SEMIMAJOR_AXIS":"6925.363","MEAN_MOTION_DOT":"0.00010938"},{"MEAN_MOTION_DDOT":"0.0000000000000","OBJECT_TYPE":"PAYLOAD","APOAPSIS":"547.803","MEAN_MOTION_DOT":"0.00018647","SEMIMAJOR_AXIS":"6925.356","GP_ID":"229911814","OBJECT_ID":"2020-006T","ARG_OF_PERICENTER":"99.4569","BSTAR":"0.00126750000000","CENTER_NAME":"EARTH","MEAN_ELEMENT_THEORY":"SGP4","EPHEMERIS_TYPE":"0","NORAD_CAT_ID":"45061","REV_AT_EPOCH":"17616","PERIAPSIS":"546.639","TLE_LINE2":"2 45061  53.0563  20.9962 0000840  99.4569 260.6515 15.06397581176163","COUNTRY_CODE":"US","REF_FRAME":"TEME","OBJECT_NAME":"STARLINK-1169","EPOCH":"2023-04-11T03:48:14.844960","MEAN_ANOMALY":"260.6515","RA_OF_ASC_NODE":"20.9962","TIME_SYSTEM":"UTC","RCS_SIZE":"LARGE","ELEMENT_SET_NO":"999","INCLINATION":"53.0563","SITE":"AFETR","TLE_LINE1":"1 45061U 20006T   23101.15850515  .00018647  00000-0  12675-2 0  9990","MEAN_MOTION":"15.06397581","FILE":"3885783","CLASSIFICATION_TYPE":"U","PERIOD":"95.592","ECCENTRICITY":"0.00008400","LAUNCH_DATE":"2020-01-29","DECAY_DATE":null},{"BSTAR":"0.00151390000000","CENTER_NAME":"EARTH","GP_ID":"229941673","ARG_OF_PERICENTER":"75.5422","OBJECT_ID":"2020-006U","REV_AT_EPOCH":"17628","MEAN_ELEMENT_THEORY":"SGP4","EPHEMERIS_TYPE":"0","NORAD_CAT_ID":"45062","OBJECT_TYPE":"PAYLOAD","APOAPSIS":"547.767","MEAN_MOTION_DDOT":"0.0000000000000","SEMIMAJOR_AXIS":"6925.206","MEAN_MOTION_DOT":"0.00022368","TLE_LINE1":"1 45062U 20006U   23101.93990228  .00022368  00000-0  15139-2 0  9996","FILE":"3885919","MEAN_MOTION":"15.06446395","CLASSIFICATION_TYPE":"U","SITE":"AFETR","ECCENTRICITY":"0.00010040","LAUNCH_DATE":"2020-01-29","DECAY_DATE":null,"PERIOD":"95.589","REF_FRAME":"TEME","OBJECT_NAME":"STARLINK-1171","PERIAPSIS":"546.376","TLE_LINE2":"2 45062  53.0551  17.4851 0001004  75.5422 284.5678 15.06446395176281","COUNTRY_CODE":"US","RCS_SIZE":"LARGE","ELEMENT_SET_NO":"999","INCLINATION":"53.0551","EPOCH":"2023-04-11T22:33:27.556992","RA_OF_ASC_NODE":"17.4851","TIME_SYSTEM":"UTC","MEAN_ANOMALY":"284.5678"},{"SITE":"AFETR","CLASSIFICATION_TYPE":"U","TLE_LINE1":"1 45064U 20006W   23101.15666500  .00024955  00000-0  16891-2 0  9995","FILE":"3885783","MEAN_MOTION":"15.06382899","PERIOD":"95.593","ECCENTRICITY":"0.00007990","DECAY_DATE":null,"LAUNCH_DATE":"2020-01-29","COUNTRY_CODE":"US","TLE_LINE2":"2 45064  53.0546   1.0033 0000799  59.3346 300.7722 15.06382899176440","PERIAPSIS":"546.713","REF_FRAME":"TEME","OBJECT_NAME":"STARLINK-1133","EPOCH":"2023-04-11T03:45:35.856000","MEAN_ANOMALY":"300.7722","RA_OF_ASC_NODE":"1.0033","TIME_SYSTEM":"UTC","ELEMENT_SET_NO":"999","INCLINATION":"53.0546","RCS_SIZE":"LARGE","ARG_OF_PERICENTER":"59.3346","OBJECT_ID":"2020-006W","GP_ID":"229913314","CENTER_NAME":"EARTH","BSTAR":"0.00168910000000","NORAD_CAT_ID":"45064","EPHEMERIS_TYPE":"0","MEAN_ELEMENT_THEORY":"SGP4","REV_AT_EPOCH":"17644","MEAN_MOTION_DDOT":"0.0000000000000","OBJECT_TYPE":"PAYLOAD","APOAPSIS":"547.819","MEAN_MOTION_DOT":"0.00024955","SEMIMAJOR_AXIS":"6925.401"},{"OBJECT_TYPE":"PAYLOAD","APOAPSIS":"547.009","MEAN_MOTION_DDOT":"0.0000000000000","SEMIMAJOR_AXIS":"6924.295","MEAN_MOTION_DOT":"0.00031253","BSTAR":"0.00208830000000","CENTER_NAME":"EARTH","GP_ID":"229913563","ARG_OF_PERICENTER":"122.3244","OBJECT_ID":"2020-006X","REV_AT_EPOCH":"17643","EPHEMERIS_TYPE":"0","MEAN_ELEMENT_THEORY":"SGP4","NORAD_CAT_ID":"45065","REF_FRAME":"TEME","OBJECT_NAME":"STARLINK-1139","PERIAPSIS":"545.311","COUNTRY_CODE":"US","TLE_LINE2":"2 45065  53.0546   1.2788 0001226 122.3244 237.7864 15.06743790176430","RCS_SIZE":"LARGE","ELEMENT_SET_NO":"999","INCLINATION":"53.0546","EPOCH":"2023-04-11T02:14:27.453120","MEAN_ANOMALY":"237.7864","TIME_SYSTEM":"UTC","RA_OF_ASC_NODE":"1.2788","TLE_LINE1":"1 45065U 20006X   23101.09337330  .00031253  00000-0  20883-2 0  9990","MEAN_MOTION":"15.06743790","FILE":"3885783","CLASSIFICATION_TYPE":"U","SITE":"AFETR","ECCENTRICITY":"0.00012260","DECAY_DATE":null,"LAUNCH_DATE":"2020-01-29","PERIOD":"95.570"},{"CENTER_NAME":"EARTH","BSTAR":"0.00155580000000","ARG_OF_PERICENTER":"73.6605","OBJECT_ID":"2020-006Y","GP_ID":"229941922","REV_AT_EPOCH":"17655","NORAD_CAT_ID":"45066","EPHEMERIS_TYPE":"0","MEAN_ELEMENT_THEORY":"SGP4","APOAPSIS":"548.053","OBJECT_TYPE":"PAYLOAD","MEAN_MOTION_DDOT":"0.0000000000000","SEMIMAJOR_AXIS":"6925.325","MEAN_MOTION_DOT":"0.00022973","CLASSIFICATION_TYPE":"U","MEAN_MOTION":"15.06407677","FILE":"3885919","TLE_LINE1":"1 45066U 20006Y   23101.93074706  .00022973  00000-0  15558-2 0  9991","SITE":"AFETR","DECAY_DATE":null,"LAUNCH_DATE":"2020-01-29","ECCENTRICITY":"0.00012460","PERIOD":"95.592","OBJECT_NAME":"STARLINK-1145","REF_FRAME":"TEME","COUNTRY_CODE":"US","TLE_LINE2":"2 45066  53.0551 357.5257 0001246  73.6605 286.4521 15.06407677176551","PERIAPSIS":"546.327","INCLINATION":"53.0551","ELEMENT_SET_NO":"999","RCS_SIZE":"LARGE","TIME_SYSTEM":"UTC","RA_OF_ASC_NODE":"357.5257","MEAN_ANOMALY":"286.4521","EPOCH":"2023-04-11T22:20:16.545984"}];
